#dP2022  7 15  0  0  0.00000000      96 __u+U ITR14 FIT  IAC
## 2218 432000.00000000   900.00000000 59775 0.0000000000000
+  127   C01C02C03C04C05C06C07C08C09C10C11C12C13C14C16C19C20
+        C21C22C23C24C25C26C27C28C29C30C32C33C34C35C36C37C38
+        C39C40C41C42C43C44C45C46C59C60E01E02E03E04E05E07E08
+        E09E10E11E12E13E14E15E18E19E21E24E25E26E27E30E31E33
+        E34E36G01G02G03G04G05G06G07G08G09G10G11G12G13G14G15
+        G16G17G18G19G20G21G22G23G24G25G26G27G28G29G30G31G32
+        J02J03J07R01R02R03R04R05R06R07R08R09R10R11R12R13R14
+        R15R17R18R19R20R21R23R24  0  0  0  0  0  0  0  0  0
++        17 16 17 17 16  9  9  9  9  9  8  9  8  9  9  7  7
++         7  7  7  7  7  7  7  7  7  7  7  7  7  7  7  7  8
++         8  8  7  7  7  7  7  7 18 17  4  5  4  4  4  5  4
++         4  5  4  4  4  4  4  5  4  4  4  4  4  5  5  4  4
++         4  5  3  0  4  4  4  3  4  4  4  3  4  4  4  4  4
++         4  4  4  4  4  4  4  3  4  4  4  4  4  4  4  4  3
++         8  8 17  7  6  6  6  6 19  6  6  6  0  6  6  7  6
++         6  6  9  7  7  6  0  6  0  0  0  0  0  0  0  0  0
%c M  cc GPS ccc cccc cccc cccc cccc ccccc ccccc ccccc ccccc
%c cc cc ccc ccc cccc cccc cccc cccc ccccc ccccc ccccc ccccc
%f  0.0000000  0.000000000  0.00000000000  0.000000000000000
%f  0.0000000  0.000000000  0.00000000000  0.000000000000000
%i    0    0    0    0      0      0      0      0         0
%i    0    0    0    0      0      0      0      0         0
/* INFORMATION & ANALYSIS CENTER (IAC)            RAPID DATA
/* S/V CLOCKS ARE ALIGNED TO GNSS TIME                      
/* G:C1WC2W R:C1PC2P E:C1XC5X C:C2IC6I J:C1CC2S             
/* PCV:IGS14_2215 OL/AL:FES2004  NONE     YN ORB:CoN CLK:CoN
*  2022 07 15 16 45  0.00000000
PC01 -34341.261212  24484.126118   -666.355712    422.820754
PC02   4522.702417  41946.335252   -122.567675   -194.374479
PC03 -14710.864781  39536.257024   -812.758291 999999.999999
PC04 -39632.213813  14438.057333   -625.575700    334.698811
PC05  22009.403253  36032.989458    107.704966   -131.647812
PC06 -14037.691141  24813.091598  31007.142348    400.149979
PC07 -10884.202122  40822.172498    267.433804   -433.051006
PC08   2512.559087  29286.665785 -30154.692953    405.213496
PC09  -5547.997325  24943.408410  33843.128723   -926.903049
PC10  -6301.286492  41632.641957  -5006.993494    118.207896
PC11 -13554.353518 -11577.732442  21538.065253    476.153019
PC12   6742.904604 -16210.004005  21714.644520   -576.393290
PC13   6399.919675  31798.083594 -26661.104175     24.798977
PC14  -7368.418386 -19768.188621 -18218.252291    542.741519
PC16 -16588.431968  24195.852188  30373.751620    143.126377
PC19  12869.889067  10671.955900  22370.742570   -216.003875
PC20   1813.798684  24854.435489  12605.253632   -963.910052
PC21  11144.073762 -24983.035795   5457.976604   -683.667609
PC22  16979.431111 -10270.064941  19606.988865   -962.855861
PC23 -20040.966025   -788.971598  19414.721418   -945.806955
PC24  -9766.345159 -23091.982242 -12275.895566   -967.778200
PC25 -22083.504500 -15979.221541   6021.473785   -707.196622
PC26   5694.979683 -16462.355034 -21815.133311    709.149357
PC27 -15912.188200  15616.310986 -16801.293411    754.659927
PC28 -26945.858322   7157.269717  -1303.566070     90.317962
PC29  22418.909151   5249.987593 -15776.596550    582.068874
PC30   4191.928236  15365.380307 -22925.473882    501.109659
PC32 -10968.174217  25074.310707  -5478.840163   -972.515753
PC33 -12918.291070 -10659.018410 -22314.782597   -172.539402
PC34  -5350.451554 -15067.638514  22854.945152   -358.212133
PC35  26938.655030  -7345.215846    116.063249    367.151164
PC36  21538.707650  16865.223089  -5479.132354   -973.198803
PC37  -7213.426339  15436.648609  22118.069082   -917.308612
PC38  -5518.449738  26046.621849 -32629.041256     10.318935
PC39 -22110.517528  24164.964517  26458.525977     -0.069967
PC40 -17228.189810  38472.355332   3122.720400     -0.622968
PC41 -16978.505269   9841.271981 -19792.139555    -82.910018
PC42  -1075.187818 -25318.238717 -11618.986223   -953.587993
PC43 -21928.090295  -5874.025509  16205.032197      3.086506
PC44  15564.107427 -16208.592652  16548.518808    724.971687
PC45  19804.223658    539.812163 -19636.799446    809.684779
PC46  11130.019447  23090.135047  10999.803976   -433.433103
PC59 -32357.814554  27058.801392    172.601590     -0.239068
PC60   7274.149745  41524.772660  -1517.666138     -0.125457
PE01  -2202.271149  26801.963175  12373.275531   -515.704537
PE02   2066.113310 -26889.648419 -12210.163688    312.126412
PE03  11812.268956 -23909.456421 -12828.318338   -579.290683
PE04   6424.422875  16804.985156  23515.436691  -1072.031248
PE05  23494.543958 -17097.895394   5638.291699   -162.710755
PE07 -21331.943866    474.989625 -20512.678053   -687.763007
PE08  -6556.864349 -16545.784068 -23646.002372   -564.131299
PE09  21232.751235   -599.029489  20614.326195   -588.606286
PE10  24760.363432  13223.132882  -9398.836342   -500.738063
PE11  28612.543486   7555.862216    857.194850   2999.710102
PE12  17159.054867  16668.207526 -17453.052697    -63.614513
PE13 -28518.252945  -7924.883691   -156.855710    429.821147
PE14  15185.202596 -17242.070069   6756.899206  -1778.267582
PE15 -17056.626389 -16598.766679  17594.906354    733.085961
PE18 -12766.273058  24812.690876 -16391.280197  -1210.794395
PE19 -13969.687422  23772.410593  10776.031468  -5085.470932
PE21 -13304.209270  12484.626325  23313.211828   -746.070472
PE24  17520.746711  11169.526439 -21082.269132   -726.438702
PE25  13427.028284 -12187.431672 -23385.136979   -581.156390
PE26 -22550.628123   5985.433608 -18224.284308  -1380.290665
PE27 -17603.385185  -9934.536174  21633.213661   -345.461098
PE30 -10909.515696 -26773.968263   6369.202594   -674.592221
PE31  11492.337159  26302.506900  -7220.634387   -499.968607
PE33  -4398.515642  15437.906231 -24874.229060   -454.681055
PE34   4146.717667 -15502.243904  24858.153608   -485.993235
PE36  23154.372108  -5315.657661  17653.584340   -402.583789
PG01  21398.316263  14365.938022  -7433.741177    320.882443
PG02      0.000000      0.000000      0.000000 999999.999999
PG03  12300.954010  18761.361988  14186.424143   -307.874325
PG04  13180.341158   8821.411469  21326.134051   -145.561547
PG05  -5988.043401 -25741.864437  -1859.861706    -89.239996
PG06  13301.736562  -9514.236172  21005.475802    386.095950
PG07  25261.471624   4892.090217  -7134.297728    319.183076
PG08   6139.252819  14300.593483 -21521.269201    -76.310769
PG09  20667.492557  -1668.961360  16552.471437   -318.748648
PG10 -12152.420824  11889.202375 -20176.441053   -492.852337
PG11   -153.202221 -16232.923627  21020.481815    -10.699346
PG12  -9665.802710 -21570.355086  11955.744767   -246.855314
PG13   4767.122126 -17929.901351 -19093.741848    348.985221
PG14  13571.772569 -10193.961938 -20400.700805   -111.786614
PG15  -8188.013197 -14230.291400 -21262.431307    -45.200529
PG16   -799.216476  26097.644825   2978.214340   -515.485308
PG17  22687.160607 -13579.604447  -2360.009694    637.181098
PG18 -24935.609643  -4713.541658  -8062.545313    112.454409
PG19  19603.312162 -16696.634639   5732.866399    184.094108
PG20    499.860867 -24497.406230  10535.968232    502.987211
PG21  15737.542139  15600.808580 -14515.132081    161.098488
PG22 -17036.608004  18449.210307   8789.515941    292.839406
PG23 -15151.060409    168.906002 -21832.542611    -33.036903
PG24 -19367.513116 -14852.433911 -11270.280790    196.198372
PG25 -15270.615384  -9015.226928  19568.425714    349.488991
PG26  -5441.987306  22234.437147  13117.116892    218.374739
PG27  -7068.738711  19679.521543 -16353.994951    220.707300
PG28   9630.760358 -19238.947649 -15217.016420    334.629419
PG29 -20752.320915    457.814613  16564.571027   -533.812613
PG30  21050.922017  -3738.800659 -15826.009062   -534.039543
PG31 -11526.056296  11257.855290  21053.135363   -185.861989
PG32 -20992.070681  16083.321258   -582.761967   -177.044698
PJ02 -26510.386663  24105.318154  27270.637217     -1.724141
PJ03 -31981.061764  19206.176949 -15103.740724     -0.136892
PJ07 -25370.276482  33691.379301     20.445453     -0.009456
PR01  14022.087031 -19185.558253   9254.996262     11.527859
PR02   6272.768870 -22583.574102 -10097.991229    524.200732
PR03  -5307.914458 -12271.590835 -21690.027682     60.264601
PR04 -13489.837787   4780.079567 -21083.964190    150.750976
PR05 -14434.433505  19064.588536  -8837.069657     96.280607
PR06  -4742.119141  22475.287405  11062.305489    -59.261146
PR07   5850.683464  11519.602328  22024.319705     37.903905
PR08  13642.591107  -4909.264480  21050.563115    -66.210458
PR09   6521.200317  20942.442234  13110.190333     65.929531
PR10  15137.387839  20358.619189  -2279.693762 999999.999999
PR11  15967.888947   8259.351000 -18089.704229     33.212704
PR12   6676.359212  -9553.115074 -22660.152307     19.307005
PR13  -5548.964322 -20374.585050 -14315.541024    -24.640906
PR14 -15549.925102 -19833.473559   3883.587504     24.872664
PR15 -15711.582340  -7503.971476  18663.105285     94.676115
PR17 -16565.780965  -7322.595531  17982.994403    543.746081
PR18 -25256.589560   -410.180483   3379.150307     32.969834
PR19 -21742.271198   5724.457901 -12063.972802   -196.408587
PR20  -2968.300889  10309.742761 -23139.070723    -74.644867
PR21  17734.700681   6839.840755 -17001.815008   -317.631232
PR23  17732.560120  -8035.135911  16465.261692 999999.999999
PR24   1929.103664 -10864.692482  23005.376223    103.719703
EOF
